#dP2018  8 18  0  0  0.00000000      96 __u+U ITR00 FIT  IAC
## 2014 518400.00000000   900.00000000 58348 0.0000000000000
+   85   C01C02C03C04C05C06C07C08C09C10C11C12C13C14E01E02E03
+        E04E05E07E08E09E11E12E14E18E19E24E26E30G01G02G03G05
+        G06G07G08G09G10G11G13G14G15G16G17G18G19G20G21G22G23
+        G24G25G26G27G28G29G30G31G32J01J02J03R01R02R03R04R07
+        R08R09R10R11R13R14R15R16R17R18R19R20R21R22R23R24R26
++        12 12 12 12 12  8  9  8  8  8  8  8  8  8  7  6  6
++         7  6  7  6  6  6  6  6  7  7  6  7  6  3  3  3  3
++         3  3  3  3  3  3  3  4  3  3  3  3  3  3  3  3  3
++         3  3  3  3  3  3  3  3  3 10 10 11  5  5  5  5  5
++         5  6  5  5  5  5  6  6  5  5  5  5  5  5  5  6  8
%c M  cc GPS ccc cccc cccc cccc cccc ccccc ccccc ccccc ccccc
%c cc cc ccc ccc cccc cccc cccc cccc ccccc ccccc ccccc ccccc
%f  0.0000000  0.000000000  0.00000000000  0.000000000000000
%f  0.0000000  0.000000000  0.00000000000  0.000000000000000
%i    0    0    0    0      0      0      0      0         0
%i    0    0    0    0      0      0      0      0         0
/* INFORMATION & ANALYSIS CENTER (IAC) OF MCC   (RAPID DATA)
/* S/V CLOCKS ARE ALIGNED TO GPS & GLONASS TIME RESPECTIVELY
/* USING THE BROADCAST EPHEMERIS                            
/* PCV:IGS14_2000 OL/AL:FES2004  NONE     YN ORB:CoN CLK:CoN
*  2018 08 18 12  0  0.00000000
PC01 -32350.985646  27041.015166  -1064.066121    485.933963
PC02   4368.527621  41924.764607    753.594205   -111.481975
PC03 -14762.641462  39489.320597   -822.661561    398.459793
PC04 -39626.783296  14376.246038   -682.923364   -231.636334
PC05  21952.076861  36003.437291    728.592380    -56.703566
PC06  -6799.956331  25988.897690  32853.979951    233.608787
PC07 -24443.078519  26850.053912 -21697.166134     18.334335
PC08 -14669.710322  37856.892499 -10785.776579    488.854447
PC09   5426.346626  32446.260389  26737.860307     36.284868
PC10  -9735.153877  28138.491824 -29851.863279     -0.992012
PC11  15503.713321  -1787.716167  23178.738068   -640.698525
PC12  15562.448282  18400.184102  14037.316507    565.098017
PC13  -6349.574955  41471.452265   2499.519346   -232.795440
PC14  26874.467356    359.538758  -7541.979426    224.565067
PE01 -27078.972220  11732.225879   2394.168375   -415.405778
PE02  27061.086508 -11757.414281  -2349.011071     23.973806
PE03  21935.153886  -2234.321745 -19735.559371    -67.065486
PE04  -5225.391650  16839.857227  23785.238189    -98.756827
PE05  25881.982656  13761.461055  -4098.437981    209.267588
PE07 -14687.090443 -21640.383744 -13859.671450    -22.220083
PE08   4955.726124 -16778.783043 -23869.171590   6521.020530
PE09  14872.814526  21440.049765  13971.687645   6702.546607
PE11   5610.190515  27103.836671  10501.028799   3867.043419
PE12  -7315.797583  27333.716604  -8716.793450   4854.226858
PE14   1620.226196  27344.692323 -14712.043355   6533.501936
PE18 -11369.185677 -23341.399126   1468.624885   5974.001137
PE19 -22925.035561    600.987848  18722.426506    -13.080508
PE24   4789.930251  15689.921620 -24643.774819   6540.720477
PE26 -14921.041626 -11222.331777 -22975.043366   5579.986626
PE30  15812.299255 -19385.414609  15815.765674   5586.022598
PG01  13752.331956 -22291.967040   3104.824326    -77.790106
PG02 -17165.865065   6083.580179 -18689.303773     24.495803
PG03  14605.846999 -13249.806415 -17789.287163    123.374442
PG05 -26526.834849   2687.074733    806.540451     -3.051043
PG06 -11008.921337 -10880.916701 -21552.802534    374.819273
PG07   3206.260634 -23570.687081  11547.457526    139.663812
PG08  13104.763101  -7455.992908  21912.706218   -112.063106
PG09  -4301.557626 -22807.648336 -12932.485987    510.575568
PG10  16139.628402  11481.678287  17817.166506    186.313725
PG11   9900.606290 -21572.161426  11544.337556   -724.021214
PG13 -16604.283612  -1624.824957  20562.779620    -90.782115
PG14  17887.682985  15836.894851 -11484.501153    -97.592594
PG15 -10623.827567  11903.339359  20982.416551   -348.212845
PG16  26771.430454    968.902999   -413.949406     13.054144
PG17 -14827.222701 -21917.349810  -2564.362760    -65.954187
PG18  16480.839788 -17130.137912  11199.363532     47.021994
PG19 -17626.183076 -15574.127627 -12493.830234   -410.717240
PG20   6225.373634  14857.845982  21005.867006    514.355542
PG21   1578.974255  22638.285532  14630.865338   -350.782115
PG22  21252.866380 -11038.824295 -11221.082549   -492.809879
PG23   4859.261719 -17406.590597 -19024.117941   -212.591507
PG24 -15015.946358  20418.397928   7294.106250    -54.137534
PG25  -5001.271110  14932.083338 -21534.580269   -633.457475
PG26  23932.579562   5471.038281 -10317.937286    -47.952964
PG27  18260.898578   4727.951643  18719.511445    352.963148
PG28 -12475.508056 -13493.689593  19778.428626    738.990085
PG29   1965.281586  22398.888255 -14165.671762    393.709682
PG30  -5071.944041 -18292.663967  18525.991694     36.068401
PG31  12520.129109   8651.568020 -21714.331995     99.832052
PG32  16501.496879  20616.667780  -3234.128622   -448.409216
PJ01 -26753.192130  25832.184541  25044.533904   -137.500993
PJ02 -34889.120658  23483.319756   6394.649783     -8.724246
PJ03 -20544.756232  21630.666920 -25185.959036     -3.069579
PR01  -4923.669728 -13138.707600 -21301.854995     30.703574
PR02 -21188.927197 -12484.451561  -6636.361290    325.304470
PR03 -22718.621985  -4030.462124  10872.084456    140.849045
PR04 -10559.969328   6988.920676  22158.255286    272.830480
PR07  22615.467960   3866.647302 -11147.621252    -45.065599
PR08  11226.843844  -6555.725407 -21893.214967     21.729907
PR09  11699.326623   4684.851375 -22149.512209     23.849157
PR10  20764.946047  -8182.295862 -12281.683982     29.955315
PR11  18228.557298 -16876.366639   5691.434491    -38.098753
PR13 -11416.325857  -4482.189799  22355.120446    -13.718220
PR14 -20824.136250   8163.754272  12299.491519     30.157856
PR15 -20116.051159  15545.578539  -1355.370268    -14.898062
PR16  -5446.518679  15792.224259 -19253.209857     99.607788
PR17 -10830.922562   -954.553333 -23074.712271    157.022913
PR18  -6418.134271  16716.048534 -18185.816930    207.235468
PR19    996.038609  25292.905487  -3137.594127    -58.190752
PR20   8594.660661  18726.100560  15067.537677   -349.113440
PR21  10705.387667    434.353943  23141.376001      1.402216
PR22   5602.903971 -18305.711276  16786.562398    -59.358851
PR23  -3383.316240 -25259.826959  -1137.656621    172.703130
PR24  -9271.454820 -17635.154801 -15953.992250   -170.258901
PR26   8673.760625  19366.822916  14140.076181     41.595101
EOF
